[{"OBJECT_NAME":"CANX-5","OBJECT_ID":"2014-034D","EPOCH":"2026-03-09T17:03:12.784896","MEAN_MOTION":14.81078391,"ECCENTRICITY":0.00123171,"INCLINATION":98.3278,"RA_OF_ASC_NODE":300.3368,"ARG_OF_PERICENTER":336.6034,"MEAN_ANOMALY":23.4615,"EPHEMERIS_TYPE":0,"CLASSIFICATION_TYPE":"U","NORAD_CAT_ID":40056,"ELEMENT_SET_NO":999,"REV_AT_EPOCH":62061,"BSTAR":0.00019034283,"MEAN_MOTION_DOT":1.421e-5,"MEAN_MOTION_DDOT":0},{"OBJECT_NAME":"GEESAT-6 08","OBJECT_ID":"2025-214J","EPOCH":"2026-03-09T22:14:05.578944","MEAN_MOTION":14.83021735,"ECCENTRICITY":0.00096397,"INCLINATION":49.9907,"RA_OF_ASC_NODE":48.1729,"ARG_OF_PERICENTER":195.6006,"MEAN_ANOMALY":164.4636,"EPHEMERIS_TYPE":0,"CLASSIFICATION_TYPE":"U","NORAD_CAT_ID":65720,"ELEMENT_SET_NO":999,"REV_AT_EPOCH":2477,"BSTAR":0.00036802718,"MEAN_MOTION_DOT":2.801e-5,"MEAN_MOTION_DDOT":0}]
